H1 CPF 01  gfz 2022 07 06 00  6871 terrasarx 
H2 0702601  6201 31698    2022 07 06 00 59 42 2022 07 11 00 00 42   120 1 1  0 0 0
H9
10 0 59767  16542.000000  0   -6409972.340  -2524861.849    -45187.426
10 0 59767  16662.000000  0   -6422080.841  -2338658.189    857842.670
10 0 59767  16782.000000  0   -6318305.387  -2112370.567   1745766.941
10 0 59767  16902.000000  0   -6099787.500  -1851965.238   2602945.271
10 0 59767  17022.000000  0   -5769805.009  -1563974.242   3414280.546
10 0 59767  17142.000000  0   -5333720.226  -1255341.325   4165492.254
10 0 59767  17262.000000  0   -4798883.603   -933261.119   4843372.573
10 0 59767  17382.000000  0   -4174500.492   -605016.944   5436017.597
10 0 59767  17502.000000  0   -3471464.895   -277820.801   5933034.704
10 0 59767  17622.000000  0   -2702160.623     41342.101   6325721.465
10 0 59767  17742.000000  0   -1880235.499    345859.412   6607212.057
10 0 59767  17862.000000  0   -1020354.265    629625.052   6772590.919
10 0 59767  17982.000000  0    -137934.898    887159.686   6818972.918
10 0 59767  18102.000000  0     751127.585   1113715.168   6745549.948
10 0 59767  18222.000000  0    1630746.295   1305361.888   6553604.252
10 0 59767  18342.000000  0    2484932.592   1459057.306   6246487.245
10 0 59767  18462.000000  0    3298086.359   1572694.238   5829565.239
10 0 59767  18582.000000  0    4055283.534   1645128.593   5310131.110
10 0 59767  18702.000000  0    4742552.933   1676186.065   4697282.320
10 0 59767  18822.000000  0    5347140.451   1666648.605   4001769.386
10 0 59767  18942.000000  0    5857756.667   1618219.494   3235810.543
10 0 59767  19062.000000  0    6264795.652   1533467.944   2412876.678
10 0 59767  19182.000000  0    6560525.435   1415753.736   1547454.109
10 0 59767  19302.000000  0    6739243.127   1269134.744    654783.981
10 0 59767  19422.000000  0    6797389.821   1098259.046   -249412.970
10 0 59767  19542.000000  0    6733623.839    908244.243  -1149222.553
10 0 59767  19662.000000  0    6548846.993    704546.496  -2028826.257
10 0 59767  19782.000000  0    6246186.933    492822.948  -2872786.102
10 0 59767  19902.000000  0    5830935.349    278792.224  -3666320.895
10 0 59767  20022.000000  0    5310444.002     68095.888  -4395567.625
10 0 59767  20142.000000  0    4693980.565   -133835.785  -5047821.744
10 0 59767  20262.000000  0    3992551.230   -321910.047  -5611751.478
10 0 59767  20382.000000  0    3218695.142   -491487.526  -6077586.156
10 0 59767  20502.000000  0    2386252.853   -638485.987  -6437275.837
10 0 59767  20622.000000  0    1510114.823   -759468.927  -6684618.055
10 0 59767  20742.000000  0     605956.596   -851718.980  -6815354.531
10 0 59767  20862.000000  0    -310038.537   -913293.906  -6827237.084
10 0 59767  20982.000000  0   -1221462.823   -943064.599  -6720061.129
10 0 59767  21102.000000  0   -2111971.082   -940735.241  -6495669.453
10 0 59767  21222.000000  0   -2965567.610   -906844.689  -6157922.894
10 0 59767  21342.000000  0   -3766886.709   -842749.719  -5712640.828
10 0 59767  21462.000000  0   -4501467.832   -750590.203  -5167512.642
10 0 59767  21582.000000  0   -5156018.969   -633236.121  -4531975.818
10 0 59767  21702.000000  0   -5718662.574   -494218.078  -3817064.100
10 0 59767  21822.000000  0   -6179161.281   -337641.844  -3035225.860
10 0 59767  21942.000000  0   -6529116.052   -168087.809  -2200113.478
10 0 59767  22062.000000  0   -6762132.694      9501.175  -1326348.466
10 0 59767  22182.000000  0   -6873952.678    189942.964   -429263.871
10 0 59767  22302.000000  0   -6862540.103    367945.789    475371.424
10 0 59767  22422.000000  0   -6728124.608    538241.772   1371636.133
10 0 59767  22542.000000  0   -6473200.721    695720.470   2243745.178
10 0 59767  22662.000000  0   -6102480.843    835559.204   3076337.212
10 0 59767  22782.000000  0   -5622802.647    953346.875   3854753.561
10 0 59767  22902.000000  0   -5042994.053   1045197.822   4565301.439
10 0 59767  23022.000000  0   -4373700.723   1107853.009   5195496.710
10 0 59767  23142.000000  0   -3627180.744   1138765.975   5734281.670
10 0 59767  23262.000000  0   -2817071.776   1136172.234   6172216.039
10 0 59767  23382.000000  0   -1958134.464   1099140.321   6501638.328
10 0 59767  23502.000000  0   -1065976.902   1027604.333   6716793.783
10 0 59767  23622.000000  0    -156768.167    922376.282   6813927.613
10 0 59767  23742.000000  0     753054.386    785138.704   6791345.762
10 0 59767  23862.000000  0    1647080.985    618417.759   6649442.452
10 0 59767  23982.000000  0    2509224.050    425537.314   6390693.927
10 0 59767  24102.000000  0    3324007.372    210554.345   6019619.020
10 0 59767  24222.000000  0    4076846.249    -21823.643   5542705.271
10 0 59767  24342.000000  0    4754312.274   -266337.651   4968301.234
10 0 59767  24462.000000  0    5344379.007   -517290.678   4306476.286
10 0 59767  24582.000000  0    5836643.873   -768674.073   3568849.174
10 0 59767  24702.000000  0    6222522.186  -1014303.760   2768386.812
10 0 59767  24822.000000  0    6495406.965  -1247963.459   1919175.252
10 0 59767  24942.000000  0    6650789.943  -1463550.513   1036167.941
10 0 59767  25062.000000  0    6686342.295  -1655222.706    134917.245
10 0 59767  25182.000000  0    6601952.298  -1817541.804   -768708.562
10 0 59767  25302.000000  0    6399716.091  -1945608.162  -1658813.874
10 0 59767  25422.000000  0    6083884.994  -2035184.831  -2519763.944
10 0 59767  25542.000000  0    5660768.895  -2082807.108  -3336465.859
10 0 59767  25662.000000  0    5138600.447  -2085875.164  -4094635.745
10 0 59767  25782.000000  0    4527364.712  -2042727.748  -4781048.072
10 0 59767  25902.000000  0    3838597.510  -1952695.915  -5383762.896
10 0 59767  26022.000000  0    3085157.419  -1816135.588  -5892325.714
10 0 59767  26142.000000  0    2280979.605  -1634438.245  -6297937.732
10 0 59767  26262.000000  0    1440815.998  -1410020.102  -6593598.116
10 0 59767  26382.000000  0     579963.949  -1146290.251  -6774214.052
10 0 59767  26502.000000  0    -286008.815   -847599.221  -6836678.844
10 0 59767  26622.000000  0   -1141539.858   -519168.024  -6779919.028
10 0 59767  26742.000000  0   -1971345.255   -166998.940  -6604911.111
10 0 59767  26862.000000  0   -2760686.578    202231.544  -6314665.546
10 0 59767  26982.000000  0   -3495626.591    581295.015  -5914180.298
10 0 59767  27102.000000  0   -4163273.020    962548.107  -5410364.867
10 0 59767  27222.000000  0   -4752006.394   1338081.350  -4811931.962
10 0 59767  27342.000000  0   -5251687.933   1699879.204  -4129259.482
10 0 59767  27462.000000  0   -5653842.687   2039987.871  -3374219.984
10 0 59767  27582.000000  0   -5951813.393   2350685.871  -2559982.234
10 0 59767  27702.000000  0   -6140882.518   2624654.964  -1700786.298
10 0 59767  27822.000000  0   -6218357.975   2855147.427   -811695.201
10 0 59767  27942.000000  0   -6183619.837   3036145.232     91672.488
10 0 59767  28062.000000  0   -6038125.327   3162506.263    993424.334
10 0 59767  28182.000000  0   -5785370.600   3230094.071   1877682.330
10 0 59767  28302.000000  0   -5430811.419   3235887.527   2728871.522
10 0 59767  28422.000000  0   -4981744.863   3178067.647   3532002.256
10 0 59767  28542.000000  0   -4447154.885   3056078.872   4272941.158
10 0 59767  28662.000000  0   -3837525.427   2870663.330   4938663.114
10 0 59767  28782.000000  0   -3164627.973   2623868.639   5517480.115
10 0 59767  28902.000000  0   -2441287.200   2319029.387   5999245.157
10 0 59767  29022.000000  0   -1681129.660   1960721.566   6375525.729
10 0 59767  29142.000000  0    -898321.768   1554691.805   6639745.028
10 0 59767  29262.000000  0    -107304.051   1107763.081   6787289.360
10 0 59767  29382.000000  0     677474.663    627718.683   6815583.668
10 0 59767  29502.000000  0    1441820.280    123166.645   6724133.377
10 0 59767  29622.000000  0    2172048.822   -396613.739   6514532.745
10 0 59767  29742.000000  0    2855230.769   -921841.995   6190439.782
10 0 59767  29862.000000  0    3479421.363  -1442419.351   5757517.163
10 0 59767  29982.000000  0    4033873.207  -1948122.562   5223338.909
10 0 59767  30102.000000  0    4509225.497  -2428804.596   4597263.184
10 0 59767  30222.000000  0    4897668.384  -2874599.074   3890274.844
10 0 59767  30342.000000  0    5193079.520  -3276124.969   3114796.505
10 0 59767  30462.000000  0    5391127.685  -3624685.289   2284469.795
10 0 59767  30582.000000  0    5489339.824  -3912455.595   1413912.897
10 0 59767  30702.000000  0    5487131.702  -4132658.722    518458.402
10 0 59767  30822.000000  0    5385800.421  -4279719.254   -386123.984
10 0 59767  30942.000000  0    5188478.984  -4349395.543  -1283913.986
10 0 59767  31062.000000  0    4900053.263  -4338883.964  -2159130.035
10 0 59767  31182.000000  0    4527043.903  -4246893.684  -2996414.227
10 0 59767  31302.000000  0    4077457.021  -4073690.575  -3781106.548
10 0 59767  31422.000000  0    3560607.506  -3821108.923  -4499503.068
10 0 59767  31542.000000  0    2986920.309  -3492532.032  -5139092.664
10 0 59767  31662.000000  0    2367714.649  -3092842.420  -5688768.353
10 0 59767  31782.000000  0    1714977.672  -2628344.336  -6139009.678
10 0 59767  31902.000000  0    1041132.002  -2106660.996  -6482037.864
10 0 59767  32022.000000  0     358799.517  -1536605.724  -6711940.497
10 0 59767  32142.000000  0    -319432.329   -928031.460  -6824762.551
10 0 59767  32262.000000  0    -981237.435   -291662.082  -6818565.937
10 0 59767  32382.000000  0   -1614769.583    361092.483  -6693458.864
10 0 59767  32502.000000  0   -2208869.722   1018335.623  -6451593.502
10 0 59767  32622.000000  0   -2753257.942   1667895.352  -6097132.963
10 0 59767  32742.000000  0   -3238708.850   2297544.282  -5636187.704
10 0 59767  32862.000000  0   -3657208.830   2895226.588  -5076721.841
10 0 59767  32982.000000  0   -4002092.748   3449288.215  -4428427.087
99
